OBJECT_NAME,OBJECT_ID,EPOCH,MEAN_MOTION,ECCENTRICITY,INCLINATION,RA_OF_ASC_NODE,ARG_OF_PERICENTER,MEAN_ANOMALY,EPHEMERIS_TYPE,CLASSIFICATION_TYPE,NORAD_CAT_ID,ELEMENT_SET_NO,REV_AT_EPOCH,BSTAR,MEAN_MOTION_DOT,MEAN_MOTION_DDOT
SL-16 R/B,1994-077B,2026-07-22T09:09:56.817504,14.15576633,.00042241,70.9822,69.1192,297.9799,62.0896,0,U,23405,999,63529,.16821141E-3,.281E-5,0
ARIANE 40+ R/B,1995-021B,2026-07-22T05:14:40.517664,14.39850278,.00079469,98.4394,272.7845,98.8545,327.9902,0,U,23561,999,63860,.6861836E-4,.172E-5,0
SL-16 R/B,1995-058B,2026-07-22T12:52:50.684736,14.15513094,.00147633,71.0203,257.1415,273.4683,86.4751,0,U,23705,999,58693,.14369629E-3,.234E-5,0
SL-16 R/B,1996-051B,2026-07-22T12:17:02.179392,14.12459486,.00182843,70.7639,249.8935,288.6392,71.2742,0,U,24298,999,54068,.11013715E-3,.154E-5,0
ORBVIEW 2 (SEASTAR),1997-037A,2026-07-22T10:14:49.242912,14.35569253,.00027952,98.8722,11.4288,45.8885,314.2529,0,U,24883,999,52780,.73362433E-4,.164E-5,0
SL-16 R/B,1998-043G,2026-07-22T14:01:31.238112,14.26073631,.00096544,98.8383,158.0521,350.1187,9.9801,0,U,25400,999,45821,.33974587E-4,.36E-6,0
SL-16 R/B,1998-045B,2026-07-22T13:15:01.592064,14.16206036,.00077824,71.0098,257.9569,195.9146,164.1734,0,U,25407,999,44619,.12905541E-3,.208E-5,0
ISS (ZARYA),1998-067A,2026-07-22T03:40:37.502112,15.49090344,.00068832,51.6313,127.0562,324.3803,35.6725,0,U,25544,999,57717,.16818085E-3,.8859E-4,0
CZ-4B R/B,1999-025C,2026-07-22T13:44:42.715968,14.18288547,.00362859,98.6468,244.5175,318.1025,204.3529,0,U,25732,999,40728,.22642327E-4,.4E-7,0
OKEAN-O,1999-039A,2026-07-22T10:11:54.523968,14.80502901,.00009152,97.9294,261.8148,101.3741,258.7574,0,U,25860,999,45432,.59789963E-4,.406E-5,0
SL-16 R/B,1999-039B,2026-07-22T03:27:17.466624,14.81875648,.00148791,97.9816,261.9036,175.7073,184.4270,0,U,25861,999,45677,.54794248E-4,.38E-5,0
DELTA 2 R/B,1999-041E,2026-07-22T11:52:54.238944,14.12105774,.0501483,51.7616,122.7263,26.3070,336.2424,0,U,25876,999,38207,.24259835E-3,.1268E-4,0
HELIOS 1B,1999-064A,2026-07-22T06:42:26.014464,14.88087861,.00016151,98.1575,109.4303,46.3623,313.7727,0,U,25977,999,70527,.12001488E-3,.1045E-4,0
TERRA,1999-068A,2026-07-22T13:54:21.924288,14.61127651,.00036419,97.9436,251.7188,108.3723,57.1543,0,U,25994,999,41477,.61837359E-4,.26E-5,0
SL-16 R/B,2000-006B,2026-07-22T07:40:32.689056,14.15840105,.00175098,71.0012,174.7523,330.0718,29.9402,0,U,26070,999,36761,.18444296E-3,.315E-5,0
TITAN 4B R/B,2000-047B,2026-07-22T13:22:53.808672,15.10359291,.0045702,67.9892,20.9980,251.3613,108.2572,0,U,26474,999,41327,.158415E-3,.2529E-4,0
ENVISAT,2002-009A,2026-07-22T09:07:05.093184,14.39071902,.00013066,98.3850,153.9170,82.3862,73.4746,0,U,27386,999,27854,.31953215E-4,.56E-6,0
IDEFIX & ARIANE 42P R/B,2002-021B,2026-07-22T13:51:28.116000,14.31096074,.00123321,98.5941,140.6780,145.3956,214.8032,0,U,27422,999,26331,.70945624E-4,.143E-5,0
AQUA,2002-022A,2026-07-22T13:41:55.958784,14.62135962,.00013479,98.4302,173.5661,102.3374,320.9031,0,U,27424,999,28844,.11870981E-3,.547E-5,0
CZ-4B R/B,2002-024C,2026-07-22T09:13:39.554976,14.14568996,.00500913,98.8679,255.9724,1.6077,9.1665,0,U,27432,999,24828,.25461442E-4,.5E-7,0
MIDORI II (ADEOS-II),2002-056A,2026-07-22T06:41:15.026496,14.29365534,.0001171,98.7899,162.8411,31.5357,328.5895,0,U,27597,999,22952,.84928649E-4,.171E-5,0
H-2A R/B,2002-056E,2026-07-22T08:09:55.668960,14.33836799,.00712186,98.3332,158.7371,119.9116,33.6546,0,U,27601,999,23340,.86197102E-4,.206E-5,0
CZ-4B R/B,2003-049C,2026-07-22T10:30:58.224960,14.55119501,.00480835,98.6915,203.6910,179.0688,181.0606,0,U,28059,999,20619,.67796678E-4,.245E-5,0
CZ-2C R/B,2004-012C,2026-07-22T04:26:49.228800,15.86874711,.00104433,97.7020,283.1270,170.1358,190.0119,0,U,28222,999,22543,.65144822E-3,.169717E-2,0
SL-16 R/B,2004-021B,2026-07-22T07:19:19.444224,14.14615590,.00060536,71.0027,309.9883,218.3771,141.6922,0,U,28353,999,14187,-.80882389E-4,-.203E-5,0
CZ-4B R/B,2004-035C,2026-07-22T13:27:00.963648,15.31062883,.00299081,97.3357,236.2432,205.5477,154.4288,0,U,28415,999,20053,.24879789E-3,.7491E-4,0
CZ-2C R/B,2004-046B,2026-07-22T11:02:51.316224,14.27034964,.01404463,98.1907,110.0300,116.0325,245.5396,0,U,28480,999,12772,.51019668E-4,.98E-6,0
ARIANE 5 R/B,2004-049H,2026-07-22T11:51:03.914784,14.85484934,.00824958,98.2748,17.1178,274.2501,84.9289,0,U,28499,999,16580,.54671875E-4,.435E-5,0
CZ-2D R/B,2005-024B,2026-07-22T11:52:08.128992,15.73483492,.00036306,97.3475,224.7884,175.4860,184.6437,0,U,28738,999,16088,.49706962E-3,.69361E-3,0
ALOS (DAICHI),2006-002A,2026-07-21T19:16:41.691648,14.70111343,.00009788,98.1341,158.2680,109.3654,250.7658,0,U,28931,999,9318,.14227069E-3,.806E-5,0
