SL-16 R/B               
1 23405U 94077B   26203.38190761  .00000281  00000+0  16821-3 0  9990
2 23405  70.9822  69.1192 0004224 297.9799  62.0896 14.15576633635293
ARIANE 40+ R/B          
1 23561U 95021B   26203.21852451  .00000172  00000+0  68618-4 0  9997
2 23561  98.4394 272.7845 0007946  98.8545 327.9902 14.39850278638608
SL-16 R/B               
1 23705U 95058B   26203.53669774  .00000234  00000+0  14370-3 0  9990
2 23705  71.0203 257.1415 0014763 273.4683  86.4751 14.15513094586936
SL-16 R/B               
1 24298U 96051B   26203.51183078  .00000154  00000+0  11014-3 0  9991
2 24298  70.7639 249.8935 0018284 288.6392  71.2742 14.12459486540680
ORBVIEW 2 (SEASTAR)     
1 24883U 97037A   26203.42695883  .00000164  00000+0  73362-4 0  9994
2 24883  98.8722  11.4288 0002795  45.8885 314.2529 14.35569253527809
SL-16 R/B               
1 25400U 98043G   26203.58438933  .00000036  00000+0  33975-4 0  9990
2 25400  98.8383 158.0521 0009654 350.1187   9.9801 14.26073631458213
SL-16 R/B               
1 25407U 98045B   26203.55210176  .00000208  00000+0  12906-3 0  9994
2 25407  71.0098 257.9569 0007782 195.9146 164.1734 14.16206036446196
ISS (ZARYA)             
1 25544U 98067A   26203.15321183  .00008859  00000+0  16818-3 0  9993
2 25544  51.6313 127.0562 0006883 324.3803  35.6725 15.49090344577176
CZ-4B R/B               
1 25732U 99025C   26203.57271662  .00000004  00000+0  22642-4 0  9996
2 25732  98.6468 244.5175 0036285 318.1025 204.3529 14.18288547407288
OKEAN-O                 
1 25860U 99039A   26203.42493662  .00000406  00000+0  59790-4 0  9993
2 25860  97.9294 261.8148 0000915 101.3741 258.7574 14.80502901454321
SL-16 R/B               
1 25861U 99039B   26203.14395216  .00000380  00000+0  54794-4 0  9999
2 25861  97.9816 261.9036 0014879 175.7073 184.4270 14.81875648456777
DELTA 2 R/B             
1 25876U 99041E   26203.49507221  .00001268  00000+0  24260-3 0  9997
2 25876  51.7616 122.7263 0501483  26.3070 336.2424 14.12105774382074
HELIOS 1B               
1 25977U 99064A   26203.27946776  .00001045  00000+0  12001-3 0  9995
2 25977  98.1575 109.4303 0001615  46.3623 313.7727 14.88087861705276
TERRA                   
1 25994U 99068A   26203.57942042  .00000260  00000+0  61837-4 0  9993
2 25994  97.9436 251.7188 0003641 108.3723  57.1543 14.61127651414771
SL-16 R/B               
1 26070U 00006B   26203.31982279  .00000315  00000+0  18444-3 0  9997
2 26070  71.0012 174.7523 0017509 330.0718  29.9402 14.15840105367619
TITAN 4B R/B            
1 26474U 00047B   26203.55756723  .00002529  00000+0  15841-3 0  9996
2 26474  67.9892  20.9980 0045702 251.3613 108.2572 15.10359291413271
ENVISAT                 
1 27386U 02009A   26203.37992006  .00000056  00000+0  31953-4 0  9991
2 27386  98.3850 153.9170 0001306  82.3862  73.4746 14.39071902278549
IDEFIX & ARIANE 42P R/B 
1 27422U 02021B   26203.57740875  .00000143  00000+0  70946-4 0  9995
2 27422  98.5941 140.6780 0012332 145.3956 214.8032 14.31096074263315
AQUA                    
1 27424U 02022A   26203.57078656  .00000547  00000+0  11871-3 0  9998
2 27424  98.4302 173.5661 0001347 102.3374 320.9031 14.62135962288444
CZ-4B R/B               
1 27432U 02024C   26203.38448559  .00000005  00000+0  25461-4 0  9991
2 27432  98.8679 255.9724 0050091   1.6077   9.1665 14.14568996248281
MIDORI II (ADEOS-II)    
1 27597U 02056A   26203.27864614  .00000171  00000+0  84929-4 0  9998
2 27597  98.7899 162.8411 0001171  31.5357 328.5895 14.29365534229521
H-2A R/B                
1 27601U 02056E   26203.34022765  .00000206  00000+0  86197-4 0  9993
2 27601  98.3332 158.7371 0071218 119.9116  33.6546 14.33836799233407
CZ-4B R/B               
1 28059U 03049C   26203.43817390  .00000245  00000+0  67797-4 0  9998
2 28059  98.6915 203.6910 0048083 179.0688 181.0606 14.55119501206199
CZ-2C R/B               
1 28222U 04012C   26203.18529200  .00169717  00000+0  65145-3 0  9997
2 28222  97.7020 283.1270 0010443 170.1358 190.0119 15.86874711225438
SL-16 R/B               
1 28353U 04021B   26203.30508616 -.00000203  00000+0 -80882-4 0  9996
2 28353  71.0027 309.9883 0006053 218.3771 141.6922 14.14615590141875
CZ-4B R/B               
1 28415U 04035C   26203.56042782  .00007491  00000+0  24880-3 0  9994
2 28415  97.3357 236.2432 0029908 205.5477 154.4288 15.31062883200535
CZ-2C R/B               
1 28480U 04046B   26203.46031616  .00000098  00000+0  51020-4 0  9994
2 28480  98.1907 110.0300 0140446 116.0325 245.5396 14.27034964127723
ARIANE 5 R/B            
1 28499U 04049H   26203.49379531  .00000435  00000+0  54672-4 0  9992
2 28499  98.2748  17.1178 0082495 274.2501  84.9289 14.85484934165806
CZ-2D R/B               
1 28738U 05024B   26203.49453853  .00069361  00000+0  49707-3 0  9997
2 28738  97.3475 224.7884 0003630 175.4860 184.6437 15.73483492160885
ALOS (DAICHI)           
1 28931U 06002A   26202.80326032  .00000806  00000+0  14227-3 0  9999
2 28931  98.1341 158.2680 0000978 109.3654 250.7658 14.70111343 93182
